SatCatId,ObjectName,LaunchYear,OrbitalPeriod,LaunchMass,StatusCode,Inclination,Status,UcsData,OrbitClassEstimated,LaunchSiteCountry,Owner,UseType,Purpose,LaunchVehicleClass,TLE1,TLE2,MeanMotion,Eccentricity,OrbitClass
47772,STARLINK-2195,2021,95.59,260.0,+,53.05,Active,1,LEO,USA,USA,Commercial,Communications,Falcon,1 47772U 21017BC  23266.35171984  .00002865  00000+0  21114-3 0  9997,2 47772  53.0541 294.4135 0001484 102.4639 257.6516 15.06400567141559,15.06400567,0.0001484,LEO
47773,STARLINK-2196,2021,95.59,260.0,+,53.05,Active,1,LEO,USA,USA,Commercial,Communications,Falcon,1 47773U 21017BD  23266.34803405  .00003322  00000+0  24182-3 0  9994,2 47773  53.0528 294.4331 0001613  99.8301 260.2870 15.06402785142189,15.06402785,0.0001613,LEO
47774,STARLINK-2197,2021,95.59,260.0,+,53.05,Active,1,LEO,USA,USA,Commercial,Communications,Falcon,1 47774U 21017BE  23266.34435274  .00003603  00000+0  26065-3 0  9994,2 47774  53.0533 294.4502 0001530  97.2534 262.8629 15.06397192142190,15.06397192,0.000153,LEO
47775,STARLINK-2198,2021,95.59,260.0,+,53.05,Active,1,LEO,USA,USA,Commercial,Communications,Falcon,1 47775U 21017BF  23266.35541236  .00004529  00000+0  32275-3 0  9990,2 47775  53.0538 294.4010 0001637  77.1299 282.9873 15.06400203142241,15.06400203,0.0001637,LEO
47776,STARLINK-2209,2021,95.59,260.0,+,53.05,Active,1,LEO,USA,USA,Commercial,Communications,Falcon,1 47776U 21017BG  23266.31578052  .00007442  00000+0  51798-3 0  9991,2 47776  53.0526 284.5773 0001146  89.6294 270.4826 15.06396778142345,15.06396778,0.0001146,LEO
47777,STARLINK-2210,2021,95.59,260.0,+,53.05,Active,1,LEO,USA,USA,Commercial,Communications,Falcon,1 47777U 21017BH  23266.31946807  .00004498  00000+0  32066-3 0  9994,2 47777  53.0536 284.5611 0001540  96.9822 263.1343 15.06404047142346,15.06404047,0.000154,LEO
47778,STARLINK-2211,2021,95.59,260.0,+,53.05,Active,1,LEO,USA,USA,Commercial,Communications,Falcon,1 47778U 21017BJ  23266.28629556  .00003182  00000+0  23241-3 0  9994,2 47778  53.0536 284.7137 0001406  99.7276 260.3872 15.06398582142338,15.06398582,0.0001406,LEO
47779,STARLINK-2212,2021,89.57,260.0,P,53.03,Active,1,LEO,USA,USA,Commercial,Communications,Falcon,1 47779U 21017BK  23266.55896207  .03275720  16377-1  41979-2 0  9999,2 47779  53.0251 198.8985 0003926 139.8570  32.5222 16.09553374142920,16.09553374,0.0003926,LEO
47780,STARLINK-2213,2021,95.59,260.0,+,53.05,Active,1,LEO,USA,USA,Commercial,Communications,Falcon,1 47780U 21017BL  23266.77651930  .00004401  00000+0  31409-3 0  9992,2 47780  53.0543 282.5108 0001565  83.6466 276.4701 15.06410586141777,15.06410586,0.0001565,LEO
47781,STARLINK-2223,2021,95.59,260.0,+,53.05,Active,1,LEO,USA,USA,Commercial,Communications,Falcon,1 47781U 21017BM  23266.27892179  .00005571  00000+0  39251-3 0  9992,2 47781  53.0541 284.7431 0001643  88.0163 272.1014 15.06407134142326,15.06407134,0.0001643,LEO
47787,STARLINK-2257,2021,95.59,260.0,+,53.05,Active,1,LEO,USA,USA,Commercial,Communications,Falcon,1 47787U 21018A   23266.56273846  .00029313  00000+0  19784-2 0  9993,2 47787  53.0545 323.4698 0001506  91.6353 268.4809 15.06403893141227,15.06403893,0.0001506,LEO
47788,STARLINK-2314,2021,95.59,260.0,+,53.05,Active,1,LEO,USA,USA,Commercial,Communications,Falcon,1 47788U 21018B   23266.50790584  .00008752  00000+0  60568-3 0  9992,2 47788  53.0534 298.7155 0001766 103.6667 256.4519 15.06402787141235,15.06402787,0.0001766,LEO
47789,STARLINK-2315,2021,95.59,260.0,+,53.05,Active,1,LEO,USA,USA,Commercial,Communications,Falcon,1 47789U 21018C   23266.49086364  .00009751  00000+0  67248-3 0  9997,2 47789  53.0543 303.7919 0001435  92.2419 267.8735 15.06407566141508,15.06407566,0.0001435,LEO
47790,STARLINK-2319,2021,95.59,260.0,+,53.05,Active,1,LEO,USA,USA,Commercial,Communications,Falcon,1 47790U 21018D   23266.46598589  .00006068  00000+0  42585-3 0  9998,2 47790  53.0531 293.9040 0001505  89.6892 270.4269 15.06404779141296,15.06404779,0.0001505,LEO
47791,STARLINK-2322,2021,95.59,260.0,+,53.05,Active,1,LEO,USA,USA,Commercial,Communications,Falcon,1 47791U 21018E   23266.48533562  .00026928  00000+0  18196-2 0  9998,2 47791  53.0544 323.8173 0001528  91.4043 268.7121 15.06403430140878,15.0640343,0.0001528,LEO
47792,STARLINK-2334,2021,95.59,260.0,+,53.05,Active,1,LEO,USA,USA,Commercial,Communications,Falcon,1 47792U 21018F   23266.43188894  .00002052  00000+0  15659-3 0  9992,2 47792  53.0537 304.0573 0001555  95.2272 264.8895 15.06399391141496,15.06399391,0.0001555,LEO
47793,STARLINK-2338,2021,95.59,260.0,+,53.05,Active,1,LEO,USA,USA,Commercial,Communications,Falcon,1 47793U 21018G   23266.38028240  .00008338  00000+0  57787-3 0  9996,2 47793  53.0540 304.2862 0001452 101.2302 258.8850 15.06408766141471,15.06408766,0.0001452,LEO
47794,STARLINK-2341,2021,95.59,260.0,+,53.05,Active,1,LEO,USA,USA,Commercial,Communications,Falcon,1 47794U 21018H   23266.38396226  .00028704  00000+0  19381-2 0  9995,2 47794  53.0541 304.2725 0001399  88.3314 271.7835 15.06398757141485,15.06398757,0.0001399,LEO
47795,STARLINK-2347,2021,95.59,260.0,+,53.05,Active,1,LEO,USA,USA,Commercial,Communications,Falcon,1 47795U 21018J   23266.50560680  .00021471  00000+0  14557-2 0  9991,2 47795  53.0535 303.7258 0001502  94.4705 265.6456 15.06406452141553,15.06406452,0.0001502,LEO
47796,STARLINK-2373,2021,95.59,260.0,+,53.05,Active,1,LEO,USA,USA,Commercial,Communications,Falcon,1 47796U 21018K   23266.38765759  .00020501  00000+0  13910-2 0  9997,2 47796  53.0536 304.2558 0001524  75.8869 284.2290 15.06404688141486,15.06404688,0.0001524,LEO
47797,STARLINK-2377,2021,95.59,260.0,+,53.05,Active,1,LEO,USA,USA,Commercial,Communications,Falcon,1 47797U 21018L   23266.49040453  .00015044  00000+0  10268-2 0  9996,2 47797  53.0545 328.7964 0001570  99.0749 261.0418 15.06396593140800,15.06396593,0.000157,LEO
47798,STARLINK-2379,2021,95.59,260.0,+,53.05,Active,1,LEO,USA,USA,Commercial,Communications,Falcon,1 47798U 21018M   23266.33236289  .00005350  00000+0  37773-3 0  9994,2 47798  53.0543 304.5040 0001471  85.4726 274.6431 15.06407808141471,15.06407808,0.0001471,LEO
47799,STARLINK-2380,2021,95.59,260.0,+,53.05,Active,1,LEO,USA,USA,Commercial,Communications,Falcon,1 47799U 21018N   23266.32867785  .00009909  00000+0  68293-3 0  9990,2 47799  53.0542 304.5200 0001455 104.3819 255.7332 15.06415230141462,15.0641523,0.0001455,LEO
47800,STARLINK-2381,2021,95.59,260.0,+,53.05,Active,1,LEO,USA,USA,Commercial,Communications,Falcon,1 47800U 21018P   23266.41715236  .00008784  00000+0  60778-3 0  9996,2 47800  53.0545 304.1223 0001512  82.2638 277.8523 15.06405081141488,15.06405081,0.0001512,LEO
47801,STARLINK-2382,2021,95.59,260.0,+,53.05,Active,1,LEO,USA,USA,Commercial,Communications,Falcon,1 47801U 21018Q   23266.38536337  .00022087  00000+0  14965-2 0  9994,2 47801  53.0536 309.3502 0001317 109.2159 250.8972 15.06413562141412,15.06413562,0.0001317,LEO
47802,STARLINK-2383,2021,95.59,260.0,+,53.05,Active,1,LEO,USA,USA,Commercial,Communications,Falcon,1 47802U 21018R   23266.49777914  .00029927  00000+0  20190-2 0  9992,2 47802  53.0536 328.7623 0001376 102.9082 257.2061 15.06408640140805,15.0640864,0.0001376,LEO
47803,STARLINK-2384,2021,95.59,260.0,+,53.05,Active,1,LEO,USA,USA,Commercial,Communications,Falcon,1 47803U 21018S   23266.42820256  .00010252  00000+0  70607-3 0  9994,2 47803  53.0544 304.0727 0001426  85.4626 274.6526 15.06404297141480,15.06404297,0.0001426,LEO
47804,STARLINK-2385,2021,95.59,260.0,+,53.05,Active,1,LEO,USA,USA,Commercial,Communications,Falcon,1 47804U 21018T   23266.50929353  .00005669  00000+0  39909-3 0  9998,2 47804  53.0549 303.7073 0001497  98.8725 261.2433 15.06409225141498,15.06409225,0.0001497,LEO
47805,STARLINK-2386,2021,95.59,260.0,+,53.05,Active,1,LEO,USA,USA,Commercial,Communications,Falcon,1 47805U 21018U   23266.47614627  .00022640  00000+0  15338-2 0  9997,2 47805  53.0537 304.1015 0001440  86.8347 273.2806 15.06402775141492,15.06402775,0.000144,LEO
47806,STARLINK-2387,2021,95.59,260.0,+,53.05,Active,1,LEO,USA,USA,Commercial,Communications,Falcon,1 47806U 21018V   23266.41392166  .00022056  00000+0  14950-2 0  9993,2 47806  53.0540 319.1482 0001499  92.7034 267.4127 15.06398974141333,15.06398974,0.0001499,LEO
47807,STARLINK-2388,2021,95.59,260.0,+,53.05,Active,1,LEO,USA,USA,Commercial,Communications,Falcon,1 47807U 21018W   23266.46966899  .00004404  00000+0  31431-3 0  9990,2 47807  53.0529 293.8869 0001366  90.7146 269.3999 15.06405093141624,15.06405093,0.0001366,LEO
47808,STARLINK-2389,2021,95.59,260.0,+,53.05,Active,1,LEO,USA,USA,Commercial,Communications,Falcon,1 47808U 21018X   23266.56504237  .00009798  00000+0  67560-3 0  9999,2 47808  53.0539 318.4593 0001369  79.5681 280.5462 15.06409801141357,15.06409801,0.0001369,LEO
47809,STARLINK-2390,2021,91.33,260.0,P,53.04,Active,1,LEO,USA,USA,Commercial,Communications,Falcon,1 47809U 21018Y   23266.33569199  .00003515  00000+0  25461-4 0  9999,2 47809  53.0449 297.6734 0001395  71.9287 288.1885 15.76732085141623,15.76732085,0.0001395,LEO
47810,STARLINK-2391,2021,95.59,260.0,+,53.05,Active,1,LEO,USA,USA,Commercial,Communications,Falcon,1 47810U 21018Z   23266.46228562  .00025021  00000+0  16933-2 0  9999,2 47810  53.0545 333.9176 0001435 103.3257 256.7892 15.06387089140720,15.06387089,0.0001435,LEO
47811,STARLINK-2392,2021,95.59,260.0,+,53.05,Active,1,LEO,USA,USA,Commercial,Communications,Falcon,1 47811U 21018AA  23266.50191548  .00008539  00000+0  59141-3 0  9992,2 47811  53.0543 303.7404 0001365  89.6552 270.4593 15.06403851141159,15.06403851,0.0001365,LEO
47812,STARLINK-2393,2021,95.59,260.0,+,53.06,Active,1,LEO,USA,USA,Commercial,Communications,Falcon,1 47812U 21018AB  23266.47335130  .00027851  00000+0  18815-2 0  9996,2 47812  53.0559 333.8691 0001461  98.5198 261.5956 15.06395034140720,15.06395034,0.0001461,LEO
